#dV2023  1 10 22  0  0.00000000    1682       CTS   FIT  GFZ
## 2244 252000.00000000    30.00000000 59954 0.9166666666667
+    1   L64  0  0  0  0  0  0  0  0  0  0  0  0  0  0  0  0
+          0  0  0  0  0  0  0  0  0  0  0  0  0  0  0  0  0
+          0  0  0  0  0  0  0  0  0  0  0  0  0  0  0  0  0
+          0  0  0  0  0  0  0  0  0  0  0  0  0  0  0  0  0
+          0  0  0  0  0  0  0  0  0  0  0  0  0  0  0  0  0
++         0  0  0  0  0  0  0  0  0  0  0  0  0  0  0  0  0
++         0  0  0  0  0  0  0  0  0  0  0  0  0  0  0  0  0
++         0  0  0  0  0  0  0  0  0  0  0  0  0  0  0  0  0
++         0  0  0  0  0  0  0  0  0  0  0  0  0  0  0  0  0
++         0  0  0  0  0  0  0  0  0  0  0  0  0  0  0  0  0
%c L  cc GPS ccc cccc cccc cccc cccc ccccc ccccc ccccc ccccc
%c cc cc ccc ccc cccc cccc cccc cccc ccccc ccccc ccccc ccccc
%f  0.0000000  0.000000000  0.00000000000  0.000000000000000
%f  0.0000000  0.000000000  0.00000000000  0.000000000000000
%i    0    0    0    0      0      0      0      0         0
%i    0    0    0    0      0      0      0      0         0
/* CCCCCCCCCCCCCCCCCCCCCCCCCCCCCCCCCCCCCCCCCCCCCCCCCCCCCCCCCCCCCCCCCCCCCCCCCCCCC
/* C                             GFZ RSO-ORBIT                                 C
/* C DOI: https://doi.org/10.5880/GFZ_ORBIT/RSO/L64_G_v02                      C
/* C                                                                           C
/* C DORIS        RMS: not applicable                                          C
/* C GNSS-E Code  RMS: not applicable                                          C
/* C GNSS-E Phase RMS: not applicable                                          C
/* C GNSS-G Code  RMS:  48.226 [cm]   Obs.acc.:     13837 Obs.eli.:      1198  C
/* C GNSS-G Phase RMS:   4.062 [mm]   Obs.acc.:     13837 Obs.eli.:      1198  C
/* C SLR          RMS:   5.377 [cm]   Obs.acc.:        11 Obs.eli.:         0  C
/* C                                                                           C
/* CCCCCCCCCCCCCCCCCCCCCCCCCCCCCCCCCCCCCCCCCCCCCCCCCCCCCCCCCCCCCCCCCCCCCCCCCCCCC
*  2023  1 11  0 58 30.00000000
PL64  -2050.281619  -4302.521008  -4947.713748  27547.844898
VL64 -24979.078678 -48845.376777  52797.155829 999999.999999
*  2023  1 11  0 59  0.00000000
PL64  -2124.395138  -4446.502971  -4786.612824  27548.304241
VL64 -24424.133821 -47134.155265  54593.611661 999999.999999
*  2023  1 11  0 59 30.00000000
PL64  -2196.791816  -4585.276293  -4620.212168  27548.763498
VL64 -23834.584430 -45373.289294  56329.979668 999999.999999
*  2023  1 11  1  0  0.00000000
PL64  -2267.368465  -4718.695129  -4448.694985  27549.222548
VL64 -23210.856443 -43564.847175  58004.310901 999999.999999
*  2023  1 11  1  0 30.00000000
PL64  -2336.023248  -4846.619919  -4272.250224  27549.681680
VL64 -22553.423567 -41710.949908  59614.723019 999999.999999
*  2023  1 11  1  1  0.00000000
PL64  -2402.655821  -4968.917543  -4091.072382  27550.140778
VL64 -21862.807079 -39813.768856  61159.402332 999999.999999
*  2023  1 11  1  1 30.00000000
PL64  -2467.167474  -5085.461467  -3905.361289  27550.599856
VL64 -21139.575619 -37875.523607  62636.605942 999999.999999
*  2023  1 11  1  2  0.00000000
PL64  -2529.461274  -5196.131885  -3715.321894  27551.059079
VL64 -20384.344883 -35898.479679  64044.664160 999999.999999
*  2023  1 11  1  2 30.00000000
PL64  -2589.442205  -5300.815853  -3521.164046  27551.518396
VL64 -19597.777228 -33884.945853  65381.982816 999999.999999
*  2023  1 11  1  3  0.00000000
PL64  -2647.017307  -5399.407418  -3323.102256  27551.977757
VL64 -18780.581250 -31837.271348  66647.045421 999999.999999
*  2023  1 11  1  3 30.00000000
PL64  -2702.095816  -5491.807726  -3121.355469  27552.437171
VL64 -17933.511236 -29757.842847  67838.415032 999999.999999
*  2023  1 11  1  4  0.00000000
PL64  -2754.589298  -5577.925141  -2916.146817  27552.896589
VL64 -17057.366600 -27649.081891  68954.735796 999999.999999
*  2023  1 11  1  4 30.00000000
PL64  -2804.411784  -5657.675338  -2707.703379  27553.355926
VL64 -16152.991311 -25513.442591  69994.734981 999999.999999
*  2023  1 11  1  5  0.00000000
PL64  -2851.479902  -5730.981401  -2496.255919  27553.814805
VL64 -15221.273053 -23353.408637  70957.225252 999999.999999
*  2023  1 11  1  5 30.00000000
PL64  -2895.713008  -5797.773905  -2282.038639  27554.273803
VL64 -14263.142288 -21171.489954  71841.106381 999999.999999
*  2023  1 11  1  6  0.00000000
PL64  -2937.033314  -5857.990989  -2065.288905  27554.732955
VL64 -13279.571361 -18970.219649  72645.366734 999999.999999
*  2023  1 11  1  6 30.00000000
PL64  -2975.366008  -5911.578424  -1846.246984  27555.192064
VL64 -12271.573485 -16752.150947  73369.084906 999999.999999
*  2023  1 11  1  7  0.00000000
PL64  -3010.639380  -5958.489666  -1625.155770  27555.651081
VL64 -11240.201543 -14519.853924  74011.431243 999999.999999
*  2023  1 11  1  7 30.00000000
PL64  -3042.784934  -5998.685902  -1402.260508  27556.110279
VL64 -10186.546793 -12275.912124  74571.669168 999999.999999
*  2023  1 11  1  8  0.00000000
PL64  -3071.737505  -6032.136087  -1177.808509  27556.569476
VL64  -9111.737478 -10022.919031  75049.156365 999999.999999
*  2023  1 11  1  8 30.00000000
PL64  -3097.435366  -6058.816965   -952.048871  27557.028669
VL64  -8016.937267  -7763.474381  75443.345549 999999.999999
*  2023  1 11  1  9  0.00000000
PL64  -3119.820334  -6078.713084   -725.232189  27557.487656
VL64  -6903.343781  -5500.180831  75753.784627 999999.999999
*  2023  1 11  1  9 30.00000000
PL64  -3138.837865  -6091.816804   -497.610273  27557.946332
VL64  -5772.187366  -3235.641248  75980.116990 999999.999999
*  2023  1 11  1 10  0.00000000
PL64  -3154.437156  -6098.128286   -269.435857  27558.404591
VL64  -4624.729815   -972.455794  76122.082485 999999.999999
*  2023  1 11  1 10 30.00000000
PL64  -3166.571234  -6097.655487    -40.962311  27558.863067
VL64  -3462.262756   1286.781731  76179.518214 999999.999999
*  2023  1 11  1 11  0.00000000
PL64  -3175.197042  -6090.414128    187.556653  27559.321950
VL64  -2286.105958   3539.487511  76152.358570 999999.999999
*  2023  1 11  1 11 30.00000000
PL64  -3180.275525  -6076.427665    415.867273  27559.781093
VL64  -1097.605754   5783.090878  76040.635116 999999.999999
*  2023  1 11  1 12  0.00000000
PL64  -3181.771704  -6055.727240    643.716026  27560.240334
VL64    101.866622   8015.037381  75844.476615 999999.999999
*  2023  1 11  1 12 30.00000000
PL64  -3179.654747  -6028.351633    870.849920  27560.699539
VL64   1310.916840  10232.791907  75564.109049 999999.999999
*  2023  1 11  1 13  0.00000000
PL64  -3173.898040  -5994.347194   1097.016791  27561.158662
VL64   2528.129266  12433.842084  75199.855629 999999.999999
*  2023  1 11  1 13 30.00000000
PL64  -3164.479243  -5953.767772   1321.965585  27561.617920
VL64   3752.068951  14615.702144  74752.136303 999999.999999
*  2023  1 11  1 14  0.00000000
PL64  -3151.380350  -5906.674628   1545.446655  27562.077292
VL64   4981.283641  16775.916306  74221.466382 999999.999999
*  2023  1 11  1 14 30.00000000
PL64  -3134.587734  -5853.136344   1767.212039  27562.536471
VL64   6214.305530  18912.061238  73608.455232 999999.999999
*  2023  1 11  1 15  0.00000000
PL64  -3114.092191  -5793.228720   1987.015745  27562.995927
VL64   7449.652924  21021.748411  72913.805589 999999.999999
*  2023  1 11  1 15 30.00000000
PL64  -3089.888984  -5727.034664   2204.614027  27563.455543
VL64   8685.832125  23102.626878  72138.313113 999999.999999
*  2023  1 11  1 16  0.00000000
PL64  -3061.977870  -5654.644079   2419.765665  27563.914984
VL64   9921.339609  25152.386505  71282.865523 999999.999999
*  2023  1 11  1 16 30.00000000
PL64  -3030.363129  -5576.153731   2632.232240  27564.374689
VL64  11154.664187  27168.760973  70348.441017 999999.999999
*  2023  1 11  1 17  0.00000000
PL64  -2995.053585  -5491.667120   2841.778399  27564.834862
VL64  12384.288941  29149.530262  69336.106658 999999.999999
*  2023  1 11  1 17 30.00000000
PL64  -2956.062616  -5401.294328   3048.172122  27565.294864
VL64  13608.693085  31092.523155  68247.016931 999999.999999
*  2023  1 11  1 18  0.00000000
PL64  -2913.408169  -5305.151879   3251.184982  27565.754594
VL64  14826.353911  32995.619778  67082.412097 999999.999999
*  2023  1 11  1 18 30.00000000
PL64  -2867.112759  -5203.362574   3450.592401  27566.214081
VL64  16035.748699  34856.753874  65843.616464 999999.999999
*  2023  1 11  1 19  0.00000000
PL64  -2817.203464  -5096.055330   3646.173894  27566.673573
VL64  17235.356609  36673.915156  64532.036794 999999.999999
*  2023  1 11  1 19 30.00000000
PL64  -2763.711923  -4983.365009   3837.713322  27567.133080
VL64  18423.660714  38445.151865  63149.160336 999999.999999
*  2023  1 11  1 20  0.00000000
PL64  -2706.674315  -4865.432237   4024.999122  27567.592641
VL64  19599.149793  40168.572755  61696.552251 999999.999999
*  2023  1 11  1 20 30.00000000
PL64  -2646.131344  -4742.403220   4207.824542  27568.052208
VL64  20760.319675  41842.348305  60175.853438 999999.999999
*  2023  1 11  1 21  0.00000000
PL64  -2582.128212  -4614.429561   4385.987865  27568.511801
VL64  21905.674902  43464.712084  58588.779331 999999.999999
*  2023  1 11  1 21 30.00000000
PL64  -2514.714594  -4481.668063   4559.292629  27568.971331
VL64  23033.731167  45033.962934  56937.118473 999999.999999
*  2023  1 11  1 22  0.00000000
PL64  -2443.944596  -4344.280532   4727.547846  27569.430660
VL64  24143.017591  46548.467324  55222.730373 999999.999999
*  2023  1 11  1 22 30.00000000
PL64  -2369.876714  -4202.433571   4890.568210  27569.889895
VL64  25232.078737  48006.661966  53447.543249 999999.999999
*  2023  1 11  1 23  0.00000000
PL64  -2292.573787  -4056.298363   5048.174298  27570.349198
VL64  26299.477025  49407.056494  51613.550294 999999.999999
*  2023  1 11  1 23 30.00000000
PL64  -2212.102934  -3906.050452   5200.192758  27570.808997
VL64  27343.794298  50748.233471  49722.805104 999999.999999
EOF
